IRIDIUM 159             
1 43578U 18061K   23316.47068142  .00000434  00000+0  14777-3 0  9999
2 43578  86.3941  92.7963 0001970  90.9061 269.2361 14.34215245277543
IRIDIUM 180             
1 43922U 19002A   23316.47017188  .00000435  00000+0  14837-3 0  9990
2 43922  86.4012  29.6633 0002231  89.8899 270.2553 14.34218764253151
IRIDIUM 176             
1 43923U 19002B   23316.48526658  .00001606  00000+0  25093-3 0  9996
2 43923  86.6139  29.6895 0002263  91.8648 268.2829 14.72222025259813
IRIDIUM 168             
1 43924U 19002C   23316.46383082  .00000346  00000+0  11658-3 0  9999
2 43924  86.4013  29.7164 0002108  89.8324 270.3113 14.34215620253139
IRIDIUM 173             
1 43925U 19002D   23316.45114775  .00000534  00000+0  18378-3 0  9995
2 43925  86.4011  29.6494 0001961  92.7762 267.3658 14.34212403253112
IRIDIUM 169             
1 43926U 19002E   23316.55481088  .00000650  00000+0  20596-3 0  9995
2 43926  86.4239  61.2125 0002279 183.0224 177.0961 14.38610967253988
IRIDIUM 172             
1 43927U 19002F   23316.58434515  .00000075  00000+0  19755-4 0  9999
2 43927  86.4011  29.5991 0002122  90.4805 269.6634 14.34212570253145
IRIDIUM 175             
1 43928U 19002G   23316.54712577  .00001517  00000+0  23667-3 0  9991
2 43928  86.1546  15.1181 0002247  94.3297 265.8176 14.72238361259811
